NORAD_CAT_ID,OBJECT_NAME,OBJECT_TYPE,EPOCH,MEAN_MOTION,ECCENTRICITY,INCLINATION,RA_OF_ASC_NODE,ARG_OF_PERICENTER,MEAN_ANOMALY,BSTAR,MEAN_MOTION_DOT,MEAN_MOTION_DDOT,TLE_LINE0,TLE_LINE1,TLE_LINE2,SEMIMAJOR_AXIS,PERIOD,APOGEE,PERIGEE,DECAYED
52285.0,STARLINK-3775,PAYLOAD,2024-02-18 21:20:12,15.08849889,0.0001165,53.2158,235.1095,93.4563,266.6562,0.00031024,4.654e-05,0.0,0 STARLINK-3775,1 52285U 22041AA  24049.88903483  .00004654  00000-0  31024-3 0  9995,2 52285  53.2158 235.1095 0001165  93.4563 266.6562 15.08849889101179,6917.85,95.437,540.521,538.909,0.0
52285.0,STARLINK-3775,PAYLOAD,2024-02-19 05:17:08,15.08842836,0.0001078,53.2148,233.6216,97.9605,262.1509,0.00016042,2.266e-05,0.0,0 STARLINK-3775,1 52285U 22041AA  24050.22023669  .00002266  00000-0  16042-3 0  9994,2 52285  53.2148 233.6216 0001078  97.9605 262.1509 15.08842836101228,6917.872,95.437,540.482,538.991,0.0
52285.0,STARLINK-3775,PAYLOAD,2024-02-19 19:35:36,15.08841432,0.0001103,53.215,230.9457,91.1861,268.9258,0.00010315,1.354e-05,0.0,0 STARLINK-3775,1 52285U 22041AA  24050.81639779  .00001354  00000-0  10315-3 0  9998,2 52285  53.2150 230.9457 0001103  91.1861 268.9258 15.08841432102549,6917.876,95.437,540.504,538.978,0.0
52285.0,STARLINK-3775,PAYLOAD,2024-02-20 11:29:28,15.08835605,0.0001138,53.2153,227.9703,85.8104,274.3018,-5.21e-07,-2.96e-06,0.0,0 STARLINK-3775,1 52285U 22041AA  24051.47880256 -.00000296  00000-0 -52100-6 0  9996,2 52285  53.2153 227.9703 0001138  85.8104 274.3018 15.08835605102641,6917.894,95.438,540.546,538.972,0.0
52285.0,STARLINK-3775,PAYLOAD,2024-02-20 17:51:01,15.0884217,0.0001097,53.2156,226.7817,85.8052,274.3065,3.1968e-05,2.21e-06,0.0,0 STARLINK-3775,1 52285U 22041AA  24051.74376193  .00000221  00000-0  31968-4 0  9999,2 52285  53.2156 226.7817 0001097  85.8052 274.3065 15.08842170101458,6917.874,95.437,540.498,538.98,0.0
52285.0,STARLINK-3775,PAYLOAD,2024-02-21 04:58:42,15.08845996,0.0001045,53.2157,224.6998,90.8362,269.275,1.7861e-05,-3e-08,0.0,0 STARLINK-3775,1 52285U 22041AA  24052.20743825 -.00000003  00000-0  17861-4 0  9996,2 52285  53.2157 224.6998 0001045  90.8362 269.2750 15.08845996102756,6917.862,95.437,540.45,539.004,0.0
52285.0,STARLINK-3775,PAYLOAD,2024-02-21 17:41:47,15.08844193,0.0001074,53.2156,222.3214,86.2536,273.8579,0.00013382,1.843e-05,0.0,0 STARLINK-3775,1 52285U 22041AA  24052.73735694  .00001843  00000-0  13382-3 0  9994,2 52285  53.2156 222.3214 0001074  86.2536 273.8579 15.08844193101606,6917.868,95.437,540.476,538.99,0.0
52285.0,STARLINK-3775,PAYLOAD,2024-02-22 14:21:48,15.08837102,0.0001102,53.2157,218.4557,83.0885,277.0233,9.2911e-05,1.191e-05,0.0,0 STARLINK-3775,1 52285U 22041AA  24053.59848233  .00001191  00000-0  92911-4 0  9995,2 52285  53.2157 218.4557 0001102  83.0885 277.0233 15.08837102101736,6917.889,95.438,540.517,538.992,0.0
52285.0,STARLINK-3775,PAYLOAD,2024-02-22 17:32:34,15.08841947,0.0001125,53.2165,217.8603,89.1223,270.9898,8.8754e-05,1.125e-05,0.0,0 STARLINK-3775,1 52285U 22041AA  24053.73095894  .00001125  00000-0  88754-4 0  9995,2 52285  53.2165 217.8603 0001125  89.1223 270.9898 15.08841947102987,6917.874,95.437,540.518,538.961,0.0
52285.0,STARLINK-3775,PAYLOAD,2024-02-23 14:12:35,15.08841708,0.0001199,53.2171,213.9937,91.5529,268.56,1.645e-05,-2.6e-07,0.0,0 STARLINK-3775,1 52285U 22041AA  24054.59208076 -.00000026  00000-0  16450-4 0  9992,2 52285  53.2171 213.9937 0001199  91.5529 268.5600 15.08841708101885,6917.875,95.437,540.57,538.911,0.0
52285.0,STARLINK-3775,PAYLOAD,2024-02-23 17:23:21,15.08843372,0.0001171,53.2172,213.3997,89.1943,270.9183,2.5833e-05,1.23e-06,0.0,0 STARLINK-3775,1 52285U 22041AA  24054.72455882  .00000123  00000-0  25833-4 0  9998,2 52285  53.2172 213.3997 0001171  89.1943 270.9183 15.08843372101904,6917.87,95.437,540.545,538.925,0.0
52285.0,STARLINK-3775,PAYLOAD,2024-02-24 10:52:36,15.08834475,0.0001121,53.2169,210.1295,87.6428,272.4692,2.4562e-05,1.03e-06,0.0,0 STARLINK-3775,1 52285U 22041AA  24055.45320568  .00000103  00000-0  24562-4 0  9997,2 52285  53.2169 210.1295 0001121  87.6428 272.4692 15.08834475103247,6917.897,95.438,540.538,538.987,0.0
52285.0,STARLINK-3775,PAYLOAD,2024-02-24 14:03:23,15.08835524,0.0001138,53.217,209.5348,87.6476,272.4646,2.928e-05,1.78e-06,0.0,0 STARLINK-3775,1 52285U 22041AA  24055.58568537  .00000178  00000-0  29280-4 0  9995,2 52285  53.2170 209.5348 0001138  87.6476 272.4646 15.08835524102032,6917.894,95.438,540.546,538.972,0.0
52285.0,STARLINK-3775,PAYLOAD,2024-02-24 17:14:09,15.08837854,0.0001133,53.217,208.9404,87.0303,273.0818,4.6404e-05,4.51e-06,0.0,0 STARLINK-3775,1 52285U 22041AA  24055.71816368  .00000451  00000-0  46404-4 0  9999,2 52285  53.2170 208.9404 0001133  87.0303 273.0818 15.08837854102054,6917.887,95.438,540.536,538.968,0.0
52285.0,STARLINK-3775,PAYLOAD,2024-02-25 13:54:09,15.08841731,0.0001144,53.2172,205.0753,88.527,271.5853,0.00010298,1.352e-05,0.0,0 STARLINK-3775,1 52285U 22041AA  24056.57928063  .00001352  00000-0  10298-3 0  9992,2 52285  53.2172 205.0753 0001144  88.5270 271.5853 15.08841731102187,6917.875,95.437,540.532,538.949,0.0
52285.0,STARLINK-3775,PAYLOAD,2024-02-25 17:04:55,15.08849233,0.0001154,53.2165,204.4809,99.9548,260.1574,0.00011306,1.512e-05,0.0,0 STARLINK-3775,1 52285U 22041AA  24056.71175547  .00001512  00000-0  11306-3 0  9998,2 52285  53.2165 204.4809 0001154  99.9548 260.1574 15.08849233103437,6917.852,95.437,540.515,538.919,0.0
52285.0,STARLINK-3775,PAYLOAD,2024-02-26 02:37:14,15.08843793,8.9e-05,53.2148,202.6946,64.8837,295.2247,0.00014207,1.974e-05,0.0,0 STARLINK-3775,1 52285U 22041AA  24057.10919773  .00001974  00000-0  14207-3 0  9994,2 52285  53.2148 202.6946 0000890  64.8837 295.2247 15.08843793103495,6917.869,95.437,540.349,539.118,0.0
52285.0,STARLINK-3775,PAYLOAD,2024-02-26 13:44:58,15.08822839,0.0001096,53.2161,200.6148,78.7394,281.3721,-4.2056e-05,-9.57e-06,0.0,0 STARLINK-3775,1 52285U 22041AA  24057.57289983 -.00000957  00000-0 -42056-4 0  9994,2 52285  53.2161 200.6148 0001096  78.7394 281.3721 15.08822839102336,6917.933,95.439,540.556,539.04,0.0
52285.0,STARLINK-3775,PAYLOAD,2024-02-26 18:31:07,15.08828022,0.0001525,53.2167,199.7218,76.6607,283.4555,-8.768e-06,-4.27e-06,0.0,0 STARLINK-3775,1 52285U 22041AA  24057.77161816 -.00000427  00000-0 -87680-5 0  9995,2 52285  53.2167 199.7218 0001525  76.6607 283.4555 15.08828022103596,6917.917,95.438,540.837,538.727,0.0
52285.0,STARLINK-3775,PAYLOAD,2024-02-27 08:49:35,15.08843774,0.0001427,53.2167,197.0437,76.1757,283.9394,-4.2278e-05,-9.61e-06,0.0,0 STARLINK-3775,1 52285U 22041AA  24058.36777223 -.00000961  00000-0 -42278-4 0  9992,2 52285  53.2167 197.0437 0001427  76.1757 283.9394 15.08843774103689,6917.869,95.437,540.721,538.747,0.0
52285.0,STARLINK-3775,PAYLOAD,2024-02-27 15:11:07,15.08847983,0.0001328,53.2169,195.8584,88.3485,271.7659,5.0362e-05,5.14e-06,0.0,0 STARLINK-3775,1 52285U 22041AA  24058.63272556  .00000514  00000-0  50362-4 0  9996,2 52285  53.2169 195.8584 0001328  88.3485 271.7659 15.08847983102496,6917.856,95.437,540.64,538.802,0.0
52285.0,STARLINK-3775,PAYLOAD,2024-02-27 16:46:30,15.08846276,0.0001326,53.216,195.5601,78.2673,281.8467,0.00011226,1.499e-05,0.0,0 STARLINK-3775,1 52285U 22041AA  24058.69896568  .00001499  00000-0  11226-3 0  9995,2 52285  53.2160 195.5601 0001326  78.2673 281.8467 15.08846276102504,6917.861,95.437,540.644,538.809,0.0
52285.0,STARLINK-3775,PAYLOAD,2024-02-28 13:26:32,15.0883462,0.0001316,53.2159,191.6935,70.7451,289.3684,0.00021688,3.165e-05,0.0,0 STARLINK-3775,1 52285U 22041AA  24059.56009430  .00003165  00000-0  21688-3 0  9991,2 52285  53.2159 191.6935 0001316  70.7451 289.3684 15.08834620102637,6917.897,95.438,540.672,538.851,0.0
52285.0,STARLINK-3775,PAYLOAD,2024-02-28 15:01:55,15.08838012,0.0001242,53.2159,191.3962,76.7826,283.3305,0.00013444,1.852e-05,0.0,0 STARLINK-3775,1 52285U 22041AA  24059.62633254  .00001852  00000-0  13444-3 0  9997,2 52285  53.2159 191.3962 0001242  76.7826 283.3305 15.08838012103874,6917.886,95.438,540.611,538.892,0.0
52285.0,STARLINK-3775,PAYLOAD,2024-02-29 11:41:55,15.08849858,0.0001262,53.2168,187.5304,71.6497,288.4632,8.0761e-05,9.98e-06,0.0,0 STARLINK-3775,1 52285U 22041AA  24060.48744584  .00000998  00000-0  80761-4 0  9999,2 52285  53.2168 187.5304 0001262  71.6497 288.4632 15.08849858104006,6917.85,95.437,540.588,538.842,0.0
52285.0,STARLINK-3775,PAYLOAD,2024-02-29 14:52:41,15.08852339,0.0001156,53.2163,186.9344,75.0623,285.0497,7.7154e-05,9.41e-06,0.0,0 STARLINK-3775,1 52285U 22041AA  24060.61992264  .00000941  00000-0  77154-4 0  9994,2 52285  53.2163 186.9344 0001156  75.0623 285.0497 15.08852339102793,6917.843,95.437,540.507,538.908,0.0
52285.0,STARLINK-3775,PAYLOAD,2024-03-01 11:32:42,15.08837302,0.0001195,53.2166,183.0702,78.4753,281.6373,6.7825e-05,7.92e-06,0.0,0 STARLINK-3775,1 52285U 22041AA  24061.48105311  .00000792  00000-0  67825-4 0  9997,2 52285  53.2166 183.0702 0001195  78.4753 281.6373 15.08837302104156,6917.889,95.438,540.58,538.927,0.0
52285.0,STARLINK-3775,PAYLOAD,2024-03-01 13:08:06,15.08838386,0.0001168,53.2159,182.7717,80.2447,279.8677,7.506e-05,9.07e-06,0.0,0 STARLINK-3775,1 52285U 22041AA  24061.54729215  .00000907  00000-0  75060-4 0  9997,2 52285  53.2159 182.7717 0001168  80.2447 279.8677 15.08838386102934,6917.885,95.438,540.558,538.942,0.0
52285.0,STARLINK-3775,PAYLOAD,2024-03-01 14:43:29,15.08839185,0.0001169,53.2159,182.4744,81.288,278.8245,8.4723e-05,1.061e-05,0.0,0 STARLINK-3775,1 52285U 22041AA  24061.61353173  .00001061  00000-0  84723-4 0  9999,2 52285  53.2159 182.4744 0001169  81.2880 278.8245 15.08839185102943,6917.883,95.438,540.557,538.939,0.0
52285.0,STARLINK-3775,PAYLOAD,2024-03-02 11:23:29,15.08848017,0.0001225,53.2176,178.6101,81.7693,278.3438,8.4267e-05,1.054e-05,0.0,0 STARLINK-3775,1 52285U 22041AA  24062.47464571  .00001054  00000-0  84267-4 0  9994,2 52285  53.2176 178.6101 0001225  81.7693 278.3438 15.08848017104301,6917.856,95.437,540.568,538.873,0.0
